OBJECT_NAME,OBJECT_ID,EPOCH,MEAN_MOTION,ECCENTRICITY,INCLINATION,RA_OF_ASC_NODE,ARG_OF_PERICENTER,MEAN_ANOMALY,EPHEMERIS_TYPE,CLASSIFICATION_TYPE,NORAD_CAT_ID,ELEMENT_SET_NO,REV_AT_EPOCH,BSTAR,MEAN_MOTION_DOT,MEAN_MOTION_DDOT
COSMOS 2507 (RODNIK-S 13),2015-050A,2026-06-19T07:48:07.193664,12.42927102,.00101194,82.4927,78.3396,352.4445,7.6480,0,U,40920,999,48712,.94852353E-3,.141E-5,0
COSMOS 2508 (RODNIK-S 14),2015-050B,2026-06-19T06:43:22.886400,12.42914294,.00151021,82.4880,76.8719,22.6283,337.5460,0,U,40921,999,48710,.40223049E-3,.66E-6,0
COSMOS 2509 (RODNIK-S 15),2015-050C,2026-06-19T05:16:49.653696,12.42883928,.00156586,82.4888,77.0118,38.9129,321.3074,0,U,40922,999,48713,.67458612E-3,.103E-5,0
LINGQIAO VIDEO A,2015-057B,2026-06-19T06:11:27.965184,14.77394114,.00151516,97.6619,164.9582,263.1448,96.8039,0,U,40959,999,57571,.43228339E-4,.259E-5,0
LINGQIAO VIDEO B,2015-057C,2026-06-19T07:15:10.798848,14.77503547,.00152626,97.6585,166.1634,262.8958,97.0517,0,U,40960,999,57576,.14895088E-3,.1015E-4,0
JILIN-1,2015-057D,2026-06-19T05:55:50.736864,14.78163223,.00153527,97.6508,169.5115,255.5380,104.4128,0,U,40961,999,57591,.92332926E-4,.621E-5,0
FOX-1A (AO-85),2015-058D,2026-06-19T07:08:43.007136,14.90977573,.01305679,64.7756,272.4251,55.7770,305.5632,0,U,40967,999,11388,.16855506E-3,.1785E-4,0
SINOD-D 1,2015-058E,2026-06-19T05:13:21.064224,14.95915852,.01191763,64.7747,252.5544,52.2744,308.9100,0,U,40968,999,11696,.20238583E-3,.2436E-4,0
ELEKTRO-L 2,2015-074A,2026-06-18T00:52:34.633344,1.00270556,.00009025,6.6975,70.5132,256.1704,298.2263,0,U,41105,999,3851,0,-.126E-5,0
DAMPE,2015-078A,2026-06-19T06:14:39.700608,15.30790281,.00137771,97.4554,175.7375,70.5754,289.6975,0,U,41173,999,58486,.39870314E-4,.1111E-4,0
ORBCOMM FM110,2015-081D,2026-06-19T05:26:50.956224,14.58883056,.00024766,47.0032,351.7984,88.5041,271.6129,0,U,41182,999,55792,.13878939E-3,.485E-5,0
ORBCOMM FM112,2015-081F,2026-06-19T06:22:41.276928,14.58906904,.00038446,46.9988,260.4183,226.3629,133.6938,0,U,41184,999,55925,.11903605E-3,.392E-5,0
ORBCOMM FM113,2015-081G,2026-06-19T05:49:07.498560,14.58860127,.00023619,47.0007,260.9057,231.7554,128.3120,0,U,41185,999,55923,.84552074E-4,.228E-5,0
ORBCOMM FM108,2015-081J,2026-06-18T00:58:24.502368,14.58870752,.00029879,47.0030,178.1625,224.9174,135.1471,0,U,41187,999,56020,.90814462E-4,.258E-5,0
ORBCOMM FM117,2015-081K,2026-06-19T04:05:18.139776,14.58865917,.0003554,46.9991,171.4540,232.2319,127.8245,0,U,41188,999,56041,.63647426E-4,.129E-5,0
ORBCOMM FM116,2015-081L,2026-06-19T06:54:21.116160,14.58885951,.00005199,47.0018,260.6896,88.7713,271.3233,0,U,41189,999,55924,.12260885E-3,.409E-5,0
HORYU-4,2016-012D,2026-06-19T01:29:50.572896,15.97473078,.00060764,30.9841,65.2425,284.0603,75.9383,0,U,41340,999,57111,.93801748E-3,.441316E-2,.73851484E-4
ZIYUAN 3-02 (ZY 3-02),2016-033A,2026-06-19T07:04:02.854272,15.21196616,.00123646,97.3833,246.0294,283.4186,76.5671,0,U,41556,999,55830,.20535869E-3,.4519E-4,0
CARTOSAT-2C,2016-040A,2026-06-19T07:11:57.727680,15.19204759,.00101583,97.4477,230.2494,124.8728,235.3463,0,U,41599,999,55403,.12698299E-3,.2607E-4,0
LAPAN-A3,2016-040E,2026-06-19T06:42:52.355232,15.33115977,.00106225,97.1490,166.3567,18.7688,341.3945,0,U,41603,999,55513,.89880488E-4,.2804E-4,0
GAOFEN-3,2016-049A,2026-06-19T07:17:51.895968,14.42216180,.00014334,98.4007,178.0585,98.6457,261.4895,0,U,41727,999,51895,.62431112E-4,.162E-5,0
CAS-2T & KS-1Q,2016-066G,2026-06-19T02:39:21.231360,14.44699826,.03428428,98.3821,245.8251,123.6625,239.7766,0,U,41847,999,50507,.19361605E-3,.1331E-4,0
YUNHAI-1 01,2016-068A,2026-06-19T07:57:23.152608,14.32424887,.00059827,98.5839,181.3198,51.2618,308.9100,0,U,41857,999,50213,.14397926E-3,.346E-5,0
RESOURCESAT-2A,2016-074A,2026-06-19T06:03:48.316320,14.21617766,.00033018,98.7526,243.7404,81.0045,279.1506,0,U,41877,999,49459,.14882712E-3,.282E-5,0
